{
    "links": {
        "self": "http://www.neowsapp.com/rest/v1/neo/3738917?api_key=iIulBulltgU6a56xZRHN4H3l9WmuAYTsLGpBGhQ2"
    },
    "id": "3738917",
    "neo_reference_id": "3738917",
    "name": "(2015 YH1)",
    "designation": "2015 YH1",
    "nasa_jpl_url": "http://ssd.jpl.nasa.gov/sbdb.cgi?sstr=3738917",
    "absolute_magnitude_h": 25.2,
    "estimated_diameter": {
        "kilometers": {
            "estimated_diameter_min": 0.0242412481,
            "estimated_diameter_max": 0.0542050786
        },
        "meters": {
            "estimated_diameter_min": 24.2412481101,
            "estimated_diameter_max": 54.2050786336
        },
        "miles": {
            "estimated_diameter_min": 0.0150628086,
            "estimated_diameter_max": 0.0336814639
        },
        "feet": {
            "estimated_diameter_min": 79.5316564495,
            "estimated_diameter_max": 177.8381901842
        }
    },
    "is_potentially_hazardous_asteroid": false,
    "close_approach_data": [
        {
            "close_approach_date": "2014-05-29",
            "close_approach_date_full": "2014-May-29 13:38",
            "epoch_date_close_approach": 1401370680000,
            "relative_velocity": {
                "kilometers_per_second": "22.2828064195",
                "kilometers_per_hour": "80218.1031102526",
                "miles_per_hour": "49844.4096798122"
            },
            "miss_distance": {
                "astronomical": "0.377032351",
                "lunar": "146.665584539",
                "kilometers": "56403236.63069237",
                "miles": "35047346.075279906"
            },
            "orbiting_body": "Earth"
        },
        {
            "close_approach_date": "2015-12-22",
            "close_approach_date_full": "2015-Dec-22 04:35",
            "epoch_date_close_approach": 1450758900000,
            "relative_velocity": {
                "kilometers_per_second": "17.119073375",
                "kilometers_per_hour": "61628.664149878",
                "miles_per_hour": "38293.6552324617"
            },
            "miss_distance": {
                "astronomical": "0.0496079188",
                "lunar": "19.2974804132",
                "kilometers": "7421238.987612956",
                "miles": "4611344.0760365528"
            },
            "orbiting_body": "Earth"
        }
    ],
    "orbital_data": {
        "orbit_id": "7",
        "orbit_determination_date": "2017-04-06 08:29:40",
        "first_observation_date": "2015-12-18",
        "last_observation_date": "2015-12-22",
        "data_arc_in_days": 4,
        "observations_used": 55,
        "orbit_uncertainty": "8",
        "minimum_orbit_intersection": ".0489408",
        "jupiter_tisserand_invariant": "4.313",
        "epoch_osculation": "2457376.5",
        "eccentricity": ".4440675517051142",
        "semi_major_axis": "1.514167020767993",
        "inclination": "24.8899597310138",
        "ascending_node_longitude": "85.59258704431424",
        "orbital_period": "680.5485313617187",
        "perihelion_distance": ".8417745789829233",
        "perihelion_argument": "68.89315274472931",
        "aphelion_distance": "2.186559462553062",
        "perihelion_time": "2457427.141185191529",
        "mean_anomaly": "333.2115700367876",
        "mean_motion": ".5289850516313233",
        "equinox": "J2000",
        "orbit_class": {
            "orbit_class_type": "APO",
            "orbit_class_description": "Near-Earth asteroid orbits which cross the Earth’s orbit similar to that of 1862 Apollo",
            "orbit_class_range": "a (semi-major axis) > 1.0 AU; q (perihelion) < 1.017 AU"
        }
    },
    "is_sentry_object": false
}